NORAD_CAT_ID,OBJECT_NAME,OBJECT_TYPE,EPOCH,MEAN_MOTION,ECCENTRICITY,INCLINATION,RA_OF_ASC_NODE,ARG_OF_PERICENTER,MEAN_ANOMALY,BSTAR,MEAN_MOTION_DOT,MEAN_MOTION_DDOT,TLE_LINE0,TLE_LINE1,TLE_LINE2,SEMIMAJOR_AXIS,PERIOD,APOGEE,PERIGEE,DECAYED
54758.0,STARLINK-5464,PAYLOAD,2023-02-01 14:00:01,15.34440283,0.0001299,53.2148,82.7623,82.4117,125.5544,-0.027862,-0.00868349,0.0,0 STARLINK-5464,1 54758U 22175A   23032.58334491 -.00868349  00000-0 -27862-1 0  9999,2 54758  53.2148  82.7623 0001299  82.4117 125.5544 15.34440283  1300,6840.721,93.845,463.474,461.697,0.0
54758.0,STARLINK-5464,PAYLOAD,2023-02-01 22:00:00,15.33787084,0.0001258,53.2151,81.2048,91.965,157.9938,-0.028744,-0.00876636,0.0,0 STARLINK-5464,1 54758U 22175A   23032.91667824 -.00876636  00000-0 -28744-1 0  9993,2 54758  53.2151  81.2048 0001258  91.9650 157.9938 15.33787084  5673,6842.663,93.885,465.388,463.667,0.0
54758.0,STARLINK-5464,PAYLOAD,2023-02-02 14:00:01,15.32494966,0.0001116,53.2152,78.1001,78.0276,253.5458,-0.03007,-0.00879928,0.0,0 STARLINK-5464,1 54758U 22175A   23033.58334491 -.00879928  00000-0 -30070-1 0  9990,2 54758  53.2152  78.1001 0001116  78.0276 253.5458 15.32494966  1300,6846.508,93.964,469.137,467.609,0.0
54758.0,STARLINK-5464,PAYLOAD,2023-02-03 00:00:00,15.3167724,0.0001185,53.2152,76.1594,82.4517,28.5529,-0.030777,-0.00877885,0.0,0 STARLINK-5464,1 54758U 22175A   23034.00001157 -.00877885  00000-0 -30777-1 0  9992,2 54758  53.2152  76.1594 0001185  82.4517  28.5529 15.31677240  5847,6848.945,94.015,471.621,469.998,0.0
54758.0,STARLINK-5464,PAYLOAD,2023-02-03 14:00:01,15.30545943,0.000124,53.2152,73.4517,66.6041,21.5381,-0.032234,-0.00886676,0.0,0 STARLINK-5464,1 54758U 22175A   23034.58334491 -.00886676  00000-0 -32234-1 0  9993,2 54758  53.2152  73.4517 0001240  66.6041  21.5381 15.30545943  1309,6852.319,94.084,475.034,473.335,0.0
54758.0,STARLINK-5464,PAYLOAD,2023-02-03 16:00:00,15.30421234,0.0001313,53.2152,73.0645,73.3683,114.1587,-0.035017,-0.00965678,0.0,0 STARLINK-5464,1 54758U 22175A   23034.66667824 -.00965678  00000-0 -35017-1 0  9993,2 54758  53.2152  73.0645 0001313  73.3683 114.1587 15.30421234  5942,6852.692,94.092,475.456,473.657,0.0
54758.0,STARLINK-5464,PAYLOAD,2023-02-04 00:00:00,15.29728268,0.0001284,53.2152,71.5167,85.7904,138.8487,-0.032894,-0.00882453,0.0,0 STARLINK-5464,1 54758U 22175A   23035.00001157 -.00882453  00000-0 -32894-1 0  9992,2 54758  53.2152  71.5167 0001284  85.7904 138.8487 15.29728268  1307,6854.761,94.134,477.506,475.746,0.0
54758.0,STARLINK-5464,PAYLOAD,2023-02-04 10:00:00,15.28907284,0.0001232,53.2153,69.5883,75.4749,284.4377,-0.033708,-0.0088164,0.0,0 STARLINK-5464,1 54758U 22175A   23035.41667824 -.00881640  00000-0 -33708-1 0  9998,2 54758  53.2153  69.5883 0001232  75.4749 284.4377 15.28907284  6055,6857.215,94.185,479.924,478.235,0.0
54758.0,STARLINK-5464,PAYLOAD,2023-02-04 14:00:01,15.2859827,0.0001324,53.2152,68.8169,76.4529,121.2161,-0.034562,-0.00894298,0.0,0 STARLINK-5464,1 54758U 22175A   23035.58334491 -.00894298  00000-0 -34562-1 0  9999,2 54758  53.2152  68.8169 0001324  76.4529 121.2161 15.28598270  1305,6858.139,94.204,480.912,479.096,0.0
54758.0,STARLINK-5464,PAYLOAD,2023-02-04 22:00:00,15.2792461,0.0001264,53.2152,67.2731,92.6483,139.9793,-0.03403,-0.00864939,0.0,0 STARLINK-5464,1 54758U 22175A   23035.91667824 -.00864939  00000-0 -34030-1 0  9994,2 54758  53.2152  67.2731 0001264  92.6483 139.9793 15.27924610  1302,6860.154,94.245,482.887,481.152,0.0
54758.0,STARLINK-5464,PAYLOAD,2023-02-05 06:00:00,15.27312523,0.0001324,53.2152,65.7339,90.1675,176.6126,-0.038005,-0.00953131,0.0,0 STARLINK-5464,1 54758U 22175A   23036.25001157 -.00953131  00000-0 -38005-1 0  9992,2 54758  53.2152  65.7339 0001324  90.1675 176.6126 15.27312523  6185,6861.987,94.283,484.761,482.944,0.0
54758.0,STARLINK-5464,PAYLOAD,2023-02-05 14:00:01,15.26658296,0.000115,53.2148,64.1958,79.9653,220.2518,-0.037616,-0.00926729,0.0,0 STARLINK-5464,1 54758U 22175A   23036.58335648 -.00926729  00000-0 -37616-1 0  9993,2 54758  53.2148  64.1958 0001150  79.9653 220.2518 15.26658296  1307,6863.947,94.324,486.602,485.023,0.0
54758.0,STARLINK-5464,PAYLOAD,2023-02-05 22:00:00,15.25970087,0.0001121,53.2148,62.6568,90.1749,242.5951,-0.035969,-0.00861526,0.0,0 STARLINK-5464,1 54758U 22175A   23036.91667824 -.00861526  00000-0 -35969-1 0  9996,2 54758  53.2148  62.6568 0001121  90.1749 242.5951 15.25970087  6280,6866.011,94.366,488.646,487.106,0.0
54758.0,STARLINK-5464,PAYLOAD,2023-02-06 14:00:01,15.2471258,0.0001195,53.2145,59.5886,69.539,326.0604,-0.040452,-0.00938642,0.0,0 STARLINK-5464,1 54758U 22175A   23037.58334491 -.00938642  00000-0 -40452-1 0  9998,2 54758  53.2145  59.5886 0001195  69.5390 326.0604 15.24712580  6383,6869.786,94.444,492.472,490.83,0.0
54758.0,STARLINK-5464,PAYLOAD,2023-02-06 22:00:00,15.24019253,0.0001195,53.2145,58.054,81.6266,344.2438,-0.038297,-0.00864596,0.0,0 STARLINK-5464,1 54758U 22175A   23037.91667824 -.00864596  00000-0 -38297-1 0  9994,2 54758  53.2145  58.0540 0001195  81.6266 344.2438 15.24019253  1302,6871.869,94.487,494.555,492.913,0.0
54758.0,STARLINK-5464,PAYLOAD,2023-02-07 14:00:01,15.22763936,0.0001367,53.2142,54.9949,68.8852,55.1212,-0.043335,-0.00947852,0.0,0 STARLINK-5464,1 54758U 22175A   23038.58334491 -.00947852  00000-0 -43335-1 0  9995,2 54758  53.2142  54.9949 0001367  68.8852  55.1212 15.22763936  1306,6875.645,94.565,498.45,496.57,0.0
54758.0,STARLINK-5464,PAYLOAD,2023-02-07 16:00:01,15.22613033,0.0001308,53.2143,54.6122,77.327,143.7921,-0.044993,-0.00977275,0.0,0 STARLINK-5464,1 54758U 22175A   23038.66668981 -.00977275  00000-0 -44993-1 0  9991,2 54758  53.2143  54.6122 0001308  77.3270 143.7921 15.22613033  6556,6876.099,94.574,498.864,497.065,0.0
54758.0,STARLINK-5464,PAYLOAD,2023-02-07 22:00:00,15.22072373,0.0001323,53.2143,53.465,80.7354,71.1936,-0.04103,-0.0088392,0.0,0 STARLINK-5464,1 54758U 22175A   23038.91667824 -.00883920  00000-0 -41030-1 0  9996,2 54758  53.2143  53.4650 0001323  80.7354  71.1936 15.22072373  1301,6877.728,94.608,500.503,498.683,0.0
54758.0,STARLINK-5464,PAYLOAD,2023-02-08 08:00:01,15.21255864,0.0001351,53.2143,51.5589,77.7897,197.9208,-0.042322,-0.00889588,0.0,0 STARLINK-5464,1 54758U 22175A   23039.33334491 -.00889588  00000-0 -42322-1 0  9995,2 54758  53.2143  51.5589 0001351  77.7897 197.9208 15.21255864  6659,6880.188,94.659,502.983,501.124,0.0
54758.0,STARLINK-5464,PAYLOAD,2023-02-08 14:00:01,15.20817945,0.0001393,53.2141,50.4151,73.4423,131.9295,-0.046616,-0.00961447,0.0,0 STARLINK-5464,1 54758U 22175A   23039.58334491 -.00961447  00000-0 -46616-1 0  9997,2 54758  53.2141  50.4151 0001393  73.4423 131.9295 15.20817945  1308,6881.509,94.686,504.333,502.416,0.0
54758.0,STARLINK-5464,PAYLOAD,2023-02-08 22:00:00,15.20122936,0.0001342,53.2141,48.8898,84.5234,146.424,-0.043689,-0.00888332,0.0,0 STARLINK-5464,1 54758U 22175A   23039.91667824 -.00888332  00000-0 -43689-1 0  9991,2 54758  53.2141  48.8898 0001342  84.5234 146.4240 15.20122936  6747,6883.606,94.729,506.395,504.548,0.0
54758.0,STARLINK-5464,PAYLOAD,2023-02-09 12:00:00,15.18992537,0.0001305,53.2141,46.2295,72.8427,110.9415,-0.045856,-0.0090113,0.0,0 STARLINK-5464,1 54758U 22175A   23040.50001157 -.00901130  00000-0 -45856-1 0  9999,2 54758  53.2141  46.2295 0001305  72.8427 110.9415 15.18992537  1309,6887.021,94.8,509.785,507.987,0.0
54758.0,STARLINK-5464,PAYLOAD,2023-02-09 22:00:00,15.18173686,0.0001259,53.2143,44.3284,94.6065,208.3182,-0.046491,-0.0089276,0.0,0 STARLINK-5464,1 54758U 22175A   23040.91667824 -.00892760  00000-0 -46491-1 0  9997,2 54758  53.2143  44.3284 0001259  94.6065 208.3182 15.18173686  6894,6889.497,94.851,512.23,510.495,0.0
54758.0,STARLINK-5464,PAYLOAD,2023-02-10 04:00:00,15.17710985,0.0001388,53.2144,43.1914,88.4334,141.3832,-0.050563,-0.00953157,0.0,0 STARLINK-5464,1 54758U 22175A   23041.16667824 -.00953157  00000-0 -50563-1 0  9998,2 54758  53.2144  43.1914 0001388  88.4334 141.3832 15.17710985  1302,6890.897,94.88,513.719,511.806,0.0
54758.0,STARLINK-5464,PAYLOAD,2023-02-10 18:00:00,15.16544204,0.0001348,53.2146,40.5382,84.1803,93.3548,-0.049238,-0.00901443,0.0,0 STARLINK-5464,1 54758U 22175A   23041.75001157 -.00901443  00000-0 -49238-1 0  9992,2 54758  53.2146  40.5382 0001348  84.1803  93.3548 15.16544204  7027,6894.431,94.953,517.226,515.367,0.0
54758.0,STARLINK-5464,PAYLOAD,2023-02-10 22:00:00,15.16221214,0.0001225,53.2144,39.7807,88.6271,279.2371,-0.049209,-0.00893211,0.0,0 STARLINK-5464,1 54758U 22175A   23041.91667824 -.00893211  00000-0 -49209-1 0  9990,2 54758  53.2144  39.7807 0001225  88.6271 279.2371 15.16221214  1306,6895.411,94.973,518.12,516.431,0.0
54758.0,STARLINK-5464,PAYLOAD,2023-02-11 14:00:01,15.14964787,0.0001224,53.2146,36.758,72.4408,334.7896,-0.056071,-0.00975042,0.0,0 STARLINK-5464,1 54758U 22175A   23042.58334491 -.00975042  00000-0 -56071-1 0  9993,2 54758  53.2146  36.7580 0001224  72.4408 334.7896 15.14964787  1301,6899.222,95.052,521.932,520.243,0.0
54758.0,STARLINK-5464,PAYLOAD,2023-02-11 16:00:00,15.14780011,0.0001321,53.2148,36.3799,77.4235,64.5203,-0.054504,-0.00945246,0.0,0 STARLINK-5464,1 54758U 22175A   23042.66667824 -.00945246  00000-0 -54504-1 0  9993,2 54758  53.2148  36.3799 0001321  77.4235  64.5203 15.14780011  7168,6899.784,95.063,522.56,520.737,0.0
54758.0,STARLINK-5464,PAYLOAD,2023-02-11 22:00:00,15.14274488,0.0001308,53.2148,35.2467,83.0647,342.6951,-0.052593,-0.00902402,0.0,0 STARLINK-5464,1 54758U 22175A   23042.91667824 -.00902402  00000-0 -52593-1 0  9994,2 54758  53.2148  35.2467 0001308  83.0647 342.6951 15.14274488  1309,6901.319,95.095,524.087,522.281,0.0
54758.0,STARLINK-5464,PAYLOAD,2023-02-12 14:00:01,15.13007579,0.000134,53.2151,32.2331,71.8009,28.6371,-0.058914,-0.00969696,0.0,0 STARLINK-5464,1 54758U 22175A   23043.58334491 -.00969696  00000-0 -58914-1 0  9990,2 54758  53.2151  32.2331 0001340  71.8009  28.6371 15.13007579  1304,6905.171,95.175,527.961,526.111,0.0
